{
  "generated_at": "2026-06-29T10:59:15+00:00",
  "source": "celestrak.org",
  "satellite_count": 9,
  "satellites": [
    {
      "id": "terra",
      "name": "TERRA",
      "platform": "EOS",
      "sensor": "MODIS",
      "swath_km": 2330,
      "color": "#39d0d8",
      "norad": 25994,
      "tle1": "1 25994U 99068A   26179.94125439  .00000368  00000+0  83955-4 0  9993",
      "tle2": "2 25994  97.9451 229.0212 0002489 156.9544 305.3307 14.61111903411320"
    },
    {
      "id": "aqua",
      "name": "AQUA",
      "platform": "EOS",
      "sensor": "MODIS",
      "swath_km": 2330,
      "color": "#2bb673",
      "norad": 27424,
      "tle1": "1 27424U 02022A   26179.88667149  .00000734  00000+0  15563-3 0  9995",
      "tle2": "2 27424  98.4282 149.4036 0000724  68.5145 319.7656 14.62174961284982"
    },
    {
      "id": "snpp",
      "name": "SUOMI NPP",
      "platform": "JPSS",
      "sensor": "VIIRS",
      "swath_km": 3000,
      "color": "#ff8c42",
      "norad": 37849,
      "tle1": "1 37849U 11061A   26179.97073516  .00000048  00000+0  44008-4 0  9994",
      "tle2": "2 37849  98.7955 120.7664 0000872 329.4173  30.6952 14.19519672760113"
    },
    {
      "id": "noaa20",
      "name": "NOAA 20",
      "platform": "JPSS",
      "sensor": "VIIRS",
      "swath_km": 3000,
      "color": "#ffaa00",
      "norad": 43013,
      "tle1": "1 43013U 17073A   26179.91352411  .00000039  00000+0  39274-4 0  9990",
      "tle2": "2 43013  98.7773 119.2719 0000717 135.3833 224.7401 14.19513755446134"
    },
    {
      "id": "noaa21",
      "name": "NOAA 21",
      "platform": "JPSS",
      "sensor": "VIIRS",
      "swath_km": 3000,
      "color": "#ff5a3a",
      "norad": 54234,
      "tle1": "1 54234U 22150A   26179.94608473  .00000049  00000+0  43705-4 0  9999",
      "tle2": "2 54234  98.7061 118.5378 0002310 133.7774 226.3594 14.19538529188210"
    },
    {
      "id": "sentinel2a",
      "name": "SENTINEL-2A",
      "platform": "Copernicus",
      "sensor": "MSI",
      "swath_km": 290,
      "color": "#b388ff",
      "norad": 40697,
      "tle1": "1 40697U 15028A   26179.96294896  .00000056  00000+0  37819-4 0  9992",
      "tle2": "2 40697  98.5689 254.6473 0001196  94.9805 265.1515 14.30818169575414"
    },
    {
      "id": "sentinel2b",
      "name": "SENTINEL-2B",
      "platform": "Copernicus",
      "sensor": "MSI",
      "swath_km": 290,
      "color": "#9d6dff",
      "norad": 42063,
      "tle1": "1 42063U 17013A   26179.95573578  .00000025  00000+0  26217-4 0  9999",
      "tle2": "2 42063  98.5697 254.5641 0001227  91.4426 268.6897 14.30819856486320"
    },
    {
      "id": "sentinel3a",
      "name": "SENTINEL-3A",
      "platform": "Copernicus",
      "sensor": "OLCI",
      "swath_km": 1270,
      "color": "#7a4fff",
      "norad": 41335,
      "tle1": "1 41335U 16011A   26179.92825939  .00000096  00000+0  57547-4 0  9993",
      "tle2": "2 41335  98.6246 247.1431 0001429  96.2235 263.9108 14.26735697539734"
    },
    {
      "id": "sentinel3b",
      "name": "SENTINEL-3B",
      "platform": "Copernicus",
      "sensor": "OLCI",
      "swath_km": 1270,
      "color": "#5e3bff",
      "norad": 43437,
      "tle1": "1 43437U 18039A   26179.83127209  .00000104  00000+0  61079-4 0  9990",
      "tle2": "2 43437  98.6245 247.1963 0000787 110.7212 249.4053 14.26737846425786"
    }
  ]
}